NORAD_CAT_ID,OBJECT_NAME,OBJECT_TYPE,EPOCH,MEAN_MOTION,ECCENTRICITY,INCLINATION,RA_OF_ASC_NODE,ARG_OF_PERICENTER,MEAN_ANOMALY,BSTAR,MEAN_MOTION_DOT,MEAN_MOTION_DDOT,TLE_LINE0,TLE_LINE1,TLE_LINE2,SEMIMAJOR_AXIS,PERIOD,APOGEE,PERIGEE,DECAYED
49739.0,STARLINK-3155,PAYLOAD,2024-01-19 03:39:55,15.08836007,0.0001912,53.2183,63.0912,117.2247,242.894,8.2566e-05,1.026e-05,0.0,0 STARLINK-3155,1 49739U 21115R   24019.15272604  .00001026  00000-0  82566-4 0  9995,2 49739  53.2183  63.0912 0001912 117.2247 242.8940 15.08836007118663,6917.893,95.438,541.08,538.435,0.0
49739.0,STARLINK-3155,PAYLOAD,2024-01-19 08:26:04,15.08836874,0.0001964,53.2182,62.1992,117.124,242.9953,8.6659e-05,1.091e-05,0.0,0 STARLINK-3155,1 49739U 21115R   24019.35144630  .00001091  00000-0  86659-4 0  9993,2 49739  53.2182  62.1992 0001964 117.1240 242.9953 15.08836874117586,6917.89,95.438,541.114,538.396,0.0
49739.0,STARLINK-3155,PAYLOAD,2024-01-20 09:52:15,15.08840449,0.0001549,53.2175,57.4393,102.8436,257.2729,7.6432e-05,9.29e-06,0.0,0 STARLINK-3155,1 49739U 21115R   24020.41128623  .00000929  00000-0  76432-4 0  9993,2 49739  53.2175  57.4393 0001549 102.8436 257.2729 15.08840449118851,6917.879,95.438,540.816,538.672,0.0
49739.0,STARLINK-3155,PAYLOAD,2024-01-21 06:32:16,15.08832394,0.0001567,53.2179,53.5728,86.9815,273.1356,0.00011954,1.615e-05,0.0,0 STARLINK-3155,1 49739U 21115R   24021.27241306  .00001615  00000-0  11954-3 0  9992,2 49739  53.2179  53.5728 0001567  86.9815 273.1356 15.08832394117871,6917.904,95.438,540.853,538.685,0.0
49739.0,STARLINK-3155,PAYLOAD,2024-01-21 11:18:26,15.08834066,0.0001397,53.2184,52.6804,94.7182,265.397,-1.2128e-05,-4.81e-06,0.0,0 STARLINK-3155,1 49739U 21115R   24021.47113474 -.00000481  00000-0 -12128-4 0  9995,2 49739  53.2184  52.6804 0001397  94.7182 265.3970 15.08834066119018,6917.899,95.438,540.73,538.797,0.0
49739.0,STARLINK-3155,PAYLOAD,2024-01-22 06:23:03,15.08839718,0.0001282,53.2189,49.1142,115.4859,244.6266,1.8988e-05,1.4e-07,0.0,0 STARLINK-3155,1 49739U 21115R   24022.26601201  .00000014  00000-0  18988-4 0  9993,2 49739  53.2189  49.1142 0001282 115.4859 244.6266 15.08839718118021,6917.881,95.438,540.633,538.859,0.0
49739.0,STARLINK-3155,PAYLOAD,2024-01-22 07:58:26,15.08841706,0.0001636,53.2178,48.8185,74.3924,285.7249,2.8335e-05,1.63e-06,0.0,0 STARLINK-3155,1 49739U 21115R   24022.33225300  .00000163  00000-0  28335-4 0  9995,2 49739  53.2178  48.8185 0001636  74.3924 285.7249 15.08841706119142,6917.875,95.437,540.872,538.608,0.0
49739.0,STARLINK-3155,PAYLOAD,2024-01-23 06:13:49,15.08841245,0.0001524,53.2174,44.6532,88.8672,271.2494,0.00018924,2.725e-05,0.0,0 STARLINK-3155,1 49739U 21115R   24023.25960611  .00002725  00000-0  18924-3 0  9996,2 49739  53.2174  44.6532 0001524  88.8672 271.2494 15.08841245118176,6917.877,95.437,540.796,538.687,0.0
49739.0,STARLINK-3155,PAYLOAD,2024-01-23 07:49:13,15.08840077,0.0001699,53.2173,44.3561,75.9775,284.1406,0.00022224,3.251e-05,0.0,0 STARLINK-3155,1 49739U 21115R   24023.32584698  .00003251  00000-0  22224-3 0  9994,2 49739  53.2173  44.3561 0001699  75.9775 284.1406 15.08840077118187,6917.88,95.438,540.921,538.57,0.0
49739.0,STARLINK-3155,PAYLOAD,2024-01-24 07:40:00,15.08839912,0.0001891,53.2196,39.8925,111.9219,248.1974,-3.2125e-05,-7.99e-06,0.0,0 STARLINK-3155,1 49739U 21115R   24024.31945349 -.00000799  00000-0 -32125-4 0  9996,2 49739  53.2196  39.8925 0001891 111.9219 248.1974 15.08839912119449,6917.881,95.438,541.054,538.437,0.0
49739.0,STARLINK-3155,PAYLOAD,2024-01-25 05:55:24,15.08844629,0.000198,53.2194,35.7328,122.4388,237.6796,-2.0516e-05,-6.15e-06,0.0,0 STARLINK-3155,1 49739U 21115R   24025.24680977 -.00000615  00000-0 -20516-4 0  9990,2 49739  53.2194  35.7328 0001980 122.4388 237.6796 15.08844629118470,6917.866,95.437,541.101,538.362,0.0
49739.0,STARLINK-3155,PAYLOAD,2024-01-26 04:10:48,15.08836086,0.0001688,53.2199,31.5695,111.2908,248.8265,6.0147e-05,6.69e-06,0.0,0 STARLINK-3155,1 49739U 21115R   24026.17417435  .00000669  00000-0  60147-4 0  9991,2 49739  53.2199  31.5695 0001688 111.2908 248.8265 15.08836086119727,6917.892,95.438,540.925,538.59,0.0
49739.0,STARLINK-3155,PAYLOAD,2024-01-26 07:21:34,15.08837787,0.000164,53.2196,30.9742,108.294,251.8231,7.4879e-05,9.04e-06,0.0,0 STARLINK-3155,1 49739U 21115R   24026.30665403  .00000904  00000-0  74879-4 0  9995,2 49739  53.2196  30.9742 0001640 108.2940 251.8231 15.08837787118635,6917.887,95.438,540.887,538.618,0.0
49739.0,STARLINK-3155,PAYLOAD,2024-01-27 08:47:45,15.08841744,0.0001592,53.2194,26.2134,97.5363,262.581,9.2239e-05,1.18e-05,0.0,0 STARLINK-3155,1 49739U 21115R   24027.36649386  .00001180  00000-0  92239-4 0  9991,2 49739  53.2194  26.2134 0001592  97.5363 262.5810 15.08841744119902,6917.875,95.437,540.841,538.639,0.0
49739.0,STARLINK-3155,PAYLOAD,2024-01-28 03:52:23,15.08835531,0.0001647,53.2197,22.6458,102.3506,257.7671,2.7227e-05,1.45e-06,0.0,0 STARLINK-3155,1 49739U 21115R   24028.16138054  .00000145  00000-0  27227-4 0  9990,2 49739  53.2197  22.6458 0001647 102.3506 257.7671 15.08835531120022,6917.894,95.438,540.898,538.62,0.0
49739.0,STARLINK-3155,PAYLOAD,2024-01-28 08:38:32,15.08838615,0.000182,53.2203,21.7521,93.8522,266.2678,6.9098e-05,8.12e-06,0.0,0 STARLINK-3155,1 49739U 21115R   24028.36009887  .00000812  00000-0  69098-4 0  9996,2 49739  53.2203  21.7521 0001820  93.8522 266.2678 15.08838615118942,6917.885,95.438,541.009,538.491,0.0
49739.0,STARLINK-3155,PAYLOAD,2024-01-29 03:43:09,15.08844414,0.0001488,53.2174,18.184,108.2639,251.8515,4.5099e-05,4.3e-06,0.0,0 STARLINK-3155,1 49739U 21115R   24029.15497446  .00000430  00000-0  45099-4 0  9997,2 49739  53.2174  18.1840 0001488 108.2639 251.8515 15.08844414120175,6917.867,95.437,540.761,538.703,0.0
49739.0,STARLINK-3155,PAYLOAD,2024-01-29 08:29:18,15.08850896,0.0001469,53.2182,17.2918,98.2758,261.8401,8.7716e-05,1.109e-05,0.0,0 STARLINK-3155,1 49739U 21115R   24029.35368950  .00001109  00000-0  87716-4 0  9992,2 49739  53.2182  17.2918 0001469  98.2758 261.8401 15.08850896120209,6917.847,95.437,540.728,538.696,0.0
49739.0,STARLINK-3155,PAYLOAD,2024-01-29 22:47:48,15.08838586,0.0001445,53.2194,14.6135,111.4774,248.6373,-3.4994e-05,-8.45e-06,0.0,0 STARLINK-3155,1 49739U 21115R   24029.94986118 -.00000845  00000-0 -34994-4 0  9997,2 49739  53.2194  14.6135 0001445 111.4774 248.6373 15.08838586119182,6917.885,95.438,540.749,538.75,0.0
49739.0,STARLINK-3155,PAYLOAD,2024-01-30 03:33:57,15.08841195,0.0001757,53.2179,13.7245,96.6956,263.4236,1.5725e-05,-3.8e-07,0.0,0 STARLINK-3155,1 49739U 21115R   24030.14857880 -.00000038  00000-0  15725-4 0  9998,2 49739  53.2179  13.7245 0001757  96.6956 263.4236 15.08841195120320,6917.877,95.437,540.957,538.526,0.0
49739.0,STARLINK-3155,PAYLOAD,2024-01-30 08:20:06,15.08844973,0.0001533,53.2182,12.8313,99.1116,261.005,6.4195e-05,7.34e-06,0.0,0 STARLINK-3155,1 49739U 21115R   24030.34729443  .00000734  00000-0  64195-4 0  9990,2 49739  53.2182  12.8313 0001533  99.1116 261.0050 15.08844973119242,6917.865,95.437,540.791,538.67,0.0
49739.0,STARLINK-3155,PAYLOAD,2024-01-31 05:00:06,15.08848667,0.0001685,53.2194,8.9657,97.2131,262.9053,2.7237e-05,1.46e-06,0.0,0 STARLINK-3155,1 49739U 21115R   24031.20841229  .00000146  00000-0  27237-4 0  9996,2 49739  53.2194   8.9657 0001685  97.2131 262.9053 15.08848667120481,6917.854,95.437,540.885,538.553,0.0
49739.0,STARLINK-3155,PAYLOAD,2024-01-31 22:29:21,15.08836192,0.0001914,53.2202,5.6973,104.4651,255.6554,2.7045e-05,1.42e-06,0.0,0 STARLINK-3155,1 49739U 21115R   24031.93706012  .00000142  00000-0  27045-4 0  9999,2 49739  53.2202   5.6973 0001914 104.4651 255.6554 15.08836192119482,6917.892,95.438,541.081,538.433,0.0
49739.0,STARLINK-3155,PAYLOAD,2024-02-01 03:15:31,15.08836797,0.0001835,53.22,4.8035,107.2352,252.8841,-1.3022e-05,-4.95e-06,0.0,0 STARLINK-3155,1 49739U 21115R   24032.13578092 -.00000495  00000-0 -13022-4 0  9990,2 49739  53.2200   4.8035 0001835 107.2352 252.8841 15.08836797120628,6917.89,95.438,541.025,538.486,0.0
49739.0,STARLINK-3155,PAYLOAD,2024-02-01 04:50:54,15.08833497,0.0001753,53.22,4.5084,93.8294,266.2899,-1.4586e-05,-5.2e-06,0.0,0 STARLINK-3155,1 49739U 21115R   24032.20202401 -.00000520  00000-0 -14586-4 0  9991,2 49739  53.2200   4.5084 0001753  93.8294 266.2899 15.08833497119526,6917.9,95.438,540.978,538.553,0.0
49739.0,STARLINK-3155,PAYLOAD,2024-02-01 22:20:08,15.08845304,0.0001553,53.2192,1.2347,108.3015,251.8147,-6.9246e-05,-1.39e-05,0.0,0 STARLINK-3155,1 49739U 21115R   24032.93065940 -.00001390  00000-0 -69246-4 0  9995,2 49739  53.2192   1.2347 0001553 108.3015 251.8147 15.08845304119631,6917.864,95.437,540.804,538.655,0.0
49739.0,STARLINK-3155,PAYLOAD,2024-02-02 03:06:18,15.08845435,0.0001526,53.219,0.3445,104.3174,255.7988,2.3092e-05,8e-07,0.0,0 STARLINK-3155,1 49739U 21115R   24033.12937586  .00000080  00000-0  23092-4 0  9993,2 49739  53.2190   0.3445 0001526 104.3174 255.7988 15.08845435120778,6917.864,95.437,540.784,538.673,0.0
49739.0,STARLINK-3155,PAYLOAD,2024-02-02 07:52:27,15.08851659,0.0001569,53.2191,359.45,108.3675,251.7487,2.6694e-05,1.37e-06,0.0,0 STARLINK-3155,1 49739U 21115R   24033.32809063  .00000137  00000-0  26694-4 0  9997,2 49739  53.2191 359.4500 0001569 108.3675 251.7487 15.08851659119690,6917.845,95.437,540.795,538.624,0.0
49739.0,STARLINK-3155,PAYLOAD,2024-02-02 22:10:52,15.08868025,0.0001367,53.2203,356.7799,96.6455,263.4693,0.00030723,4.609e-05,0.0,0 STARLINK-3155,1 49739U 21115R   24033.92422383  .00004609  00000-0  30723-3 0  9994,2 49739  53.2203 356.7799 0001367  96.6455 263.4693 15.08868025119789,6917.795,95.436,540.605,538.714,0.0
49739.0,STARLINK-3155,PAYLOAD,2024-02-03 02:57:05,15.08820502,0.0001397,53.2192,355.8835,93.9654,266.1498,-0.00011048,-2.045e-05,0.0,0 STARLINK-3155,1 49739U 21115R   24034.12298416 -.00002045  00000-0 -11048-3 0  9998,2 49739  53.2192 355.8835 0001397  93.9654 266.1498 15.08820502120920,6917.94,95.439,540.771,538.839,0.0
